start=new Date('2022-03-31T00:00:00.000Z').valueOf();
sats=[{"MEAN_MOTION_DOT":"-0.00050721","OBJECT_ID":"2021-024D","SEMIMAJOR_AXIS":"6925.316","BSTAR":"-0.00340950000000","DECAY_DATE":null,"FILE":"3380787","PERIAPSIS":"545.986","TLE_LINE1":"1 47980U 21024D   22090.00001157 -.00050721  00000-0 -34095-2 0  9994","SITE":"AFETR","REV_AT_EPOCH":"358","ELEMENT_SET_NO":"999","PERIOD":"95.591","LAUNCH_DATE":"2021-03-24","REF_FRAME":"TEME","INCLINATION":"53.0548","MEAN_MOTION_DDOT":"0.0000000000000","EPOCH":"2022-03-31T00:00:00.999648","NORAD_CAT_ID":"47980","GP_ID":"200096937","APOAPSIS":"548.376","RA_OF_ASC_NODE":"234.6384","OBJECT_TYPE":"PAYLOAD","EPHEMERIS_TYPE":"0","RCS_SIZE":"LARGE","MEAN_ELEMENT_THEORY":"SGP4","OBJECT_NAME":"STARLINK-2312","TLE_LINE2":"2 47980  53.0548 234.6384 0001726  48.6491 343.6566 15.06410678  3580","MEAN_MOTION":"15.06410678","ARG_OF_PERICENTER":"48.6491","CLASSIFICATION_TYPE":"U","ECCENTRICITY":"0.00017260","TIME_SYSTEM":"UTC","CENTER_NAME":"EARTH","COUNTRY_CODE":"US","MEAN_ANOMALY":"343.6566"},{"SEMIMAJOR_AXIS":"6925.349","OBJECT_ID":"2021-024E","MEAN_MOTION_DOT":"0.00002031","FILE":"3380787","PERIAPSIS":"546.131","DECAY_DATE":null,"BSTAR":"0.00015522000000","ELEMENT_SET_NO":"999","SITE":"AFETR","REV_AT_EPOCH":"5755","TLE_LINE1":"1 47981U 21024E   22089.90425830  .00002031  00000-0  15522-3 0  9994","LAUNCH_DATE":"2021-03-24","PERIOD":"95.592","MEAN_MOTION_DDOT":"0.0000000000000","EPOCH":"2022-03-30T21:42:07.917120","INCLINATION":"53.0549","REF_FRAME":"TEME","NORAD_CAT_ID":"47981","GP_ID":"200097689","OBJECT_TYPE":"PAYLOAD","APOAPSIS":"548.298","RA_OF_ASC_NODE":"320.0672","RCS_SIZE":"LARGE","EPHEMERIS_TYPE":"0","TLE_LINE2":"2 47981  53.0549 320.0672 0001564  60.3683 299.7461 15.06399693 57550","OBJECT_NAME":"STARLINK-2303","MEAN_ELEMENT_THEORY":"SGP4","ECCENTRICITY":"0.00015640","TIME_SYSTEM":"UTC","ARG_OF_PERICENTER":"60.3683","CLASSIFICATION_TYPE":"U","MEAN_MOTION":"15.06399693","CENTER_NAME":"EARTH","MEAN_ANOMALY":"299.7461","COUNTRY_CODE":"US"},{"BSTAR":"-0.00134700000000","DECAY_DATE":null,"FILE":"3380787","PERIAPSIS":"545.971","MEAN_MOTION_DOT":"-0.00020290","SEMIMAJOR_AXIS":"6925.344","OBJECT_ID":"2021-024F","PERIOD":"95.592","LAUNCH_DATE":"2021-03-24","TLE_LINE1":"1 47982U 21024F   22090.00001157 -.00020290  00000-0 -13470-2 0  9998","REV_AT_EPOCH":"357","SITE":"AFETR","ELEMENT_SET_NO":"999","NORAD_CAT_ID":"47982","REF_FRAME":"TEME","INCLINATION":"53.0521","MEAN_MOTION_DDOT":"0.0000000000000","EPOCH":"2022-03-31T00:00:00.999648","GP_ID":"200097439","APOAPSIS":"548.446","RA_OF_ASC_NODE":"249.6284","OBJECT_TYPE":"PAYLOAD","MEAN_ELEMENT_THEORY":"SGP4","OBJECT_NAME":"STARLINK-2317","TLE_LINE2":"2 47982  53.0521 249.6284 0001787  39.3713 225.3251 15.06401590  3578","EPHEMERIS_TYPE":"0","RCS_SIZE":"LARGE","CENTER_NAME":"EARTH","MEAN_MOTION":"15.06401590","CLASSIFICATION_TYPE":"U","ARG_OF_PERICENTER":"39.3713","TIME_SYSTEM":"UTC","ECCENTRICITY":"0.00017870","COUNTRY_CODE":"US","MEAN_ANOMALY":"225.3251"},{"GP_ID":"200096187","MEAN_MOTION_DDOT":"0.0000000000000","EPOCH":"2022-03-31T00:00:00.999648","REF_FRAME":"TEME","INCLINATION":"53.0543","NORAD_CAT_ID":"47985","SITE":"AFETR","REV_AT_EPOCH":"361","ELEMENT_SET_NO":"999","TLE_LINE1":"1 47985U 21024J   22090.00001157 -.00024508  00000-0 -16320-2 0  9994","LAUNCH_DATE":"2021-03-24","PERIOD":"95.592","OBJECT_ID":"2021-024J","SEMIMAJOR_AXIS":"6925.342","MEAN_MOTION_DOT":"-0.00024508","DECAY_DATE":null,"PERIAPSIS":"546.356","FILE":"3380787","BSTAR":"-0.00163200000000","COUNTRY_CODE":"US","MEAN_ANOMALY":"262.6550","CLASSIFICATION_TYPE":"U","ARG_OF_PERICENTER":"59.6421","ECCENTRICITY":"0.00012290","TIME_SYSTEM":"UTC","MEAN_MOTION":"15.06402086","CENTER_NAME":"EARTH","RCS_SIZE":"LARGE","EPHEMERIS_TYPE":"0","OBJECT_NAME":"STARLINK-2308","TLE_LINE2":"2 47985  53.0543 254.6426 0001229  59.6421 262.6550 15.06402086  3613","MEAN_ELEMENT_THEORY":"SGP4","APOAPSIS":"548.058","RA_OF_ASC_NODE":"254.6426","OBJECT_TYPE":"PAYLOAD"},{"OBJECT_TYPE":"PAYLOAD","RA_OF_ASC_NODE":"271.5148","APOAPSIS":"365.994","RCS_SIZE":"LARGE","EPHEMERIS_TYPE":"0","TLE_LINE2":"2 47988  53.0528 271.5148 0001348  51.6606 308.4530 15.67840123 58170","OBJECT_NAME":"STARLINK-2306","MEAN_ELEMENT_THEORY":"SGP4","ECCENTRICITY":"0.00013480","TIME_SYSTEM":"UTC","ARG_OF_PERICENTER":"51.6606","CLASSIFICATION_TYPE":"U","MEAN_MOTION":"15.67840123","CENTER_NAME":"EARTH","MEAN_ANOMALY":"308.4530","COUNTRY_CODE":"US","OBJECT_ID":"2021-024M","SEMIMAJOR_AXIS":"6743.220","MEAN_MOTION_DOT":"0.00559521","FILE":"3380787","PERIAPSIS":"364.176","DECAY_DATE":null,"BSTAR":"0.00466180000000","ELEMENT_SET_NO":"999","REV_AT_EPOCH":"5817","SITE":"AFETR","TLE_LINE1":"1 47988U 21024M   22089.90797066  .00559521  00000-0  46618-2 0  9994","LAUNCH_DATE":"2021-03-24","PERIOD":"91.846","MEAN_MOTION_DDOT":"0.0000000000000","EPOCH":"2022-03-30T21:47:28.665024","INCLINATION":"53.0528","REF_FRAME":"TEME","NORAD_CAT_ID":"47988","GP_ID":"200096437"},{"RA_OF_ASC_NODE":"229.6309","APOAPSIS":"548.150","OBJECT_TYPE":"PAYLOAD","EPHEMERIS_TYPE":"0","RCS_SIZE":"LARGE","MEAN_ELEMENT_THEORY":"SGP4","OBJECT_NAME":"STARLINK-2305","TLE_LINE2":"2 47989  53.0541 229.6309 0001433  80.9014 238.9016 15.06418238  3618","MEAN_MOTION":"15.06418238","ARG_OF_PERICENTER":"80.9014","CLASSIFICATION_TYPE":"U","TIME_SYSTEM":"UTC","ECCENTRICITY":"0.00014330","CENTER_NAME":"EARTH","COUNTRY_CODE":"US","MEAN_ANOMALY":"238.9016","MEAN_MOTION_DOT":"-0.00059273","SEMIMAJOR_AXIS":"6925.293","OBJECT_ID":"2021-024N","BSTAR":"-0.00399160000000","DECAY_DATE":null,"FILE":"3380787","PERIAPSIS":"546.165","TLE_LINE1":"1 47989U 21024N   22090.00001157 -.00059273  00000-0 -39916-2 0  9991","REV_AT_EPOCH":"361","SITE":"AFETR","ELEMENT_SET_NO":"999","PERIOD":"95.591","LAUNCH_DATE":"2021-03-24","REF_FRAME":"TEME","INCLINATION":"53.0541","MEAN_MOTION_DDOT":"0.0000000000000","EPOCH":"2022-03-31T00:00:00.999648","NORAD_CAT_ID":"47989","GP_ID":"200097189"},{"CENTER_NAME":"EARTH","MEAN_MOTION":"15.06416960","CLASSIFICATION_TYPE":"U","ARG_OF_PERICENTER":"57.3467","ECCENTRICITY":"0.00015200","TIME_SYSTEM":"UTC","COUNTRY_CODE":"US","MEAN_ANOMALY":"157.3374","RA_OF_ASC_NODE":"229.6303","APOAPSIS":"548.214","OBJECT_TYPE":"PAYLOAD","MEAN_ELEMENT_THEORY":"SGP4","OBJECT_NAME":"STARLINK-2307","TLE_LINE2":"2 47990  53.0520 229.6303 0001520  57.3467 157.3374 15.06416960  3619","EPHEMERIS_TYPE":"0","RCS_SIZE":"LARGE","NORAD_CAT_ID":"47990","REF_FRAME":"TEME","INCLINATION":"53.0520","MEAN_MOTION_DDOT":"0.0000000000000","EPOCH":"2022-03-31T00:00:00.999648","GP_ID":"200097940","BSTAR":"-0.00387930000000","DECAY_DATE":null,"PERIAPSIS":"546.109","FILE":"3380787","MEAN_MOTION_DOT":"-0.00057625","SEMIMAJOR_AXIS":"6925.297","OBJECT_ID":"2021-024P","PERIOD":"95.591","LAUNCH_DATE":"2021-03-24","TLE_LINE1":"1 47990U 21024P   22090.00001157 -.00057625  00000-0 -38793-2 0  9994","SITE":"AFETR","REV_AT_EPOCH":"361","ELEMENT_SET_NO":"999"},{"NORAD_CAT_ID":"47991","MEAN_MOTION_DDOT":"0.0000000000000","EPOCH":"2022-03-31T00:00:00.999648","INCLINATION":"53.0536","REF_FRAME":"TEME","GP_ID":"200096688","FILE":"3380787","PERIAPSIS":"546.181","DECAY_DATE":null,"BSTAR":"-0.00198740000000","SEMIMAJOR_AXIS":"6925.333","OBJECT_ID":"2021-024Q","MEAN_MOTION_DOT":"-0.00029765","LAUNCH_DATE":"2021-03-24","PERIOD":"95.592","ELEMENT_SET_NO":"999","REV_AT_EPOCH":"361","SITE":"AFETR","TLE_LINE1":"1 47991U 21024Q   22090.00001157 -.00029765  00000-0 -19874-2 0  9998","CENTER_NAME":"EARTH","TIME_SYSTEM":"UTC","ECCENTRICITY":"0.00014680","ARG_OF_PERICENTER":"77.7481","CLASSIFICATION_TYPE":"U","MEAN_MOTION":"15.06405221","MEAN_ANOMALY":"79.5316","COUNTRY_CODE":"US","OBJECT_TYPE":"PAYLOAD","APOAPSIS":"548.214","RA_OF_ASC_NODE":"244.6376","TLE_LINE2":"2 47991  53.0536 244.6376 0001468  77.7481  79.5316 15.06405221  3616","OBJECT_NAME":"STARLINK-2279","MEAN_ELEMENT_THEORY":"SGP4","RCS_SIZE":"LARGE","EPHEMERIS_TYPE":"0"},{"GP_ID":"200096938","REF_FRAME":"TEME","INCLINATION":"53.0524","MEAN_MOTION_DDOT":"0.0000000000000","EPOCH":"2022-03-31T00:00:00.999648","NORAD_CAT_ID":"47992","TLE_LINE1":"1 47992U 21024R   22090.00001157 -.00006364  00000-0 -40882-3 0  9993","SITE":"AFETR","REV_AT_EPOCH":"357","ELEMENT_SET_NO":"999","PERIOD":"95.593","LAUNCH_DATE":"2021-03-24","MEAN_MOTION_DOT":"-0.00006364","OBJECT_ID":"2021-024R","SEMIMAJOR_AXIS":"6925.380","BSTAR":"-0.00040882000000","DECAY_DATE":null,"FILE":"3380787","PERIAPSIS":"546.134","COUNTRY_CODE":"US","MEAN_ANOMALY":"31.6210","MEAN_MOTION":"15.06389889","ARG_OF_PERICENTER":"53.1506","CLASSIFICATION_TYPE":"U","TIME_SYSTEM":"UTC","ECCENTRICITY":"0.00016040","CENTER_NAME":"EARTH","EPHEMERIS_TYPE":"0","RCS_SIZE":"LARGE","MEAN_ELEMENT_THEORY":"SGP4","OBJECT_NAME":"STARLINK-2229","TLE_LINE2":"2 47992  53.0524 239.6413 0001604  53.1506  31.6210 15.06389889  3576","APOAPSIS":"548.355","RA_OF_ASC_NODE":"239.6413","OBJECT_TYPE":"PAYLOAD"},{"GP_ID":"200097690","REF_FRAME":"TEME","INCLINATION":"53.0537","MEAN_MOTION_DDOT":"0.0000000000000","EPOCH":"2022-03-30T20:49:03.182880","NORAD_CAT_ID":"47993","TLE_LINE1":"1 47993U 21024S   22089.86739795  .00001103  00000-0  92965-4 0  9996","REV_AT_EPOCH":"5810","SITE":"AFETR","ELEMENT_SET_NO":"999","PERIOD":"95.592","LAUNCH_DATE":"2021-03-24","MEAN_MOTION_DOT":"0.00001103","OBJECT_ID":"2021-024S","SEMIMAJOR_AXIS":"6925.354","BSTAR":"0.00009296500000","DECAY_DATE":null,"PERIAPSIS":"546.120","FILE":"3380787","COUNTRY_CODE":"US","MEAN_ANOMALY":"294.0824","MEAN_MOTION":"15.06398137","ARG_OF_PERICENTER":"66.0331","CLASSIFICATION_TYPE":"U","ECCENTRICITY":"0.00015870","TIME_SYSTEM":"UTC","CENTER_NAME":"EARTH","EPHEMERIS_TYPE":"0","RCS_SIZE":"LARGE","MEAN_ELEMENT_THEORY":"SGP4","OBJECT_NAME":"STARLINK-2273","TLE_LINE2":"2 47993  53.0537 280.2456 0001587  66.0331 294.0824 15.06398137 58100","RA_OF_ASC_NODE":"280.2456","APOAPSIS":"548.318","OBJECT_TYPE":"PAYLOAD"}];
